[{"OBJECT_NAME":"STARLINK-3285","OBJECT_ID":"2021-125AB","EPOCH":"2026-03-09T19:16:25.120128","MEAN_MOTION":15.08829905,"ECCENTRICITY":9.903e-5,"INCLINATION":53.2154,"RA_OF_ASC_NODE":248.622,"ARG_OF_PERICENTER":96.1062,"MEAN_ANOMALY":264.0043,"EPHEMERIS_TYPE":0,"CLASSIFICATION_TYPE":"U","NORAD_CAT_ID":50181,"ELEMENT_SET_NO":999,"REV_AT_EPOCH":23662,"BSTAR":0.0003869058,"MEAN_MOTION_DOT":5.873e-5,"MEAN_MOTION_DDOT":0},{"OBJECT_NAME":"COSMOS 886 DEB","OBJECT_ID":"1976-126AF","EPOCH":"2026-03-09T23:31:01.873920","MEAN_MOTION":14.3102807,"ECCENTRICITY":0.04259179,"INCLINATION":65.888,"RA_OF_ASC_NODE":14.8915,"ARG_OF_PERICENTER":257.6926,"MEAN_ANOMALY":97.6185,"EPHEMERIS_TYPE":0,"CLASSIFICATION_TYPE":"U","NORAD_CAT_ID":9819,"ELEMENT_SET_NO":999,"REV_AT_EPOCH":42137,"BSTAR":0.0011909255,"MEAN_MOTION_DOT":8.527e-5,"MEAN_MOTION_DDOT":0}]
